OBJECT_NAME,OBJECT_ID,EPOCH,MEAN_MOTION,ECCENTRICITY,INCLINATION,RA_OF_ASC_NODE,ARG_OF_PERICENTER,MEAN_ANOMALY,EPHEMERIS_TYPE,CLASSIFICATION_TYPE,NORAD_CAT_ID,ELEMENT_SET_NO,REV_AT_EPOCH,BSTAR,MEAN_MOTION_DOT,MEAN_MOTION_DDOT
SL-8 R/B,1985-006B,2026-07-15T13:00:43.511328,14.37845453,.00192523,74.0453,25.8825,268.8486,152.6177,0,U,15483,999,17240,.48279945E-4,.119E-5,0
SL-12 R/B(2),1985-042D,2026-07-15T09:05:41.820864,14.22010889,.00373303,71.1066,177.9532,285.9117,179.5575,0,U,15772,999,13254,.24485107E-4,.7E-7,0
SL-14 R/B,1985-069B,2026-07-15T13:48:15.270336,14.86535263,.00200619,82.5262,264.6689,126.1164,234.1914,0,U,15945,999,19183,.21391392E-4,.215E-5,0
SL-16 R/B,1985-097B,2026-07-15T12:31:41.666592,14.16612922,.00056585,71.0007,231.4247,51.0311,59.0637,0,U,16182,999,10533,.1075696E-3,.167E-5,0
SL-14 R/B,1986-006B,2026-07-15T07:33:09.966816,14.86968328,.00754773,82.5283,139.6451,208.4610,151.2478,0,U,16496,999,16817,.22206273E-4,.236E-5,0
COSMOS 1743,1986-034A,2026-07-15T08:22:46.797600,15.69632573,.00053851,82.5282,298.7309,176.3189,183.8114,0,U,16719,999,20020,.34049985E-3,.40423E-3,0
SL-14 R/B,1986-046B,2026-07-15T10:34:01.201152,14.85690634,.00235467,82.4839,319.4791,162.2185,197.9861,0,U,16792,999,14537,.23312197E-4,.228E-5,0
SL-14 R/B,1986-055B,2026-07-15T13:36:25.961760,14.85740479,.00173052,82.5203,6.4467,268.9044,156.1106,0,U,16882,999,13835,.22240963E-4,.218E-5,0
AJISAI (EGS),1986-061A,2026-07-15T15:21:12.163104,12.44516692,.00110837,50.0102,59.9045,253.0499,155.3981,0,U,16908,999,48393,.15653103E-3,-.75E-6,0
SL-14 R/B,1987-024B,2026-07-15T10:15:14.591808,14.86231775,.00178343,82.5298,332.7058,192.9801,167.0960,0,U,17567,999,10710,.21835321E-4,.217E-5,0
COSMOS 1833,1987-027A,2026-07-15T01:40:51.513024,14.13066600,.00242468,70.9213,58.2635,8.9062,351.2484,0,U,17589,999,2831,.72779206E-4,.88E-6,0
SL-16 R/B,1987-027B,2026-07-15T12:29:18.088800,14.17173548,.00071399,71.0032,7.1206,281.2426,78.7896,0,U,17590,999,3345,.79531047E-4,.112E-5,0
SL-14 R/B,1987-038B,2026-07-15T10:05:43.742688,14.85461531,.00208333,82.5012,176.4775,101.5143,258.8414,0,U,17912,999,9819,.21427568E-4,.21E-5,0
COSMOS 1844,1987-041A,2026-07-15T06:01:40.910016,14.14580768,.00313286,70.8997,125.1117,195.2119,164.8064,0,U,17973,999,2162,.66688485E-4,.8E-6,0
SL-14 R/B,1987-055B,2026-07-15T12:13:54.848640,14.85727162,.00193974,82.4971,228.5287,314.0050,45.9567,0,U,18153,999,8891,.20504594E-4,.203E-5,0
COSMOS 1867,1987-060A,2026-07-15T11:55:17.947200,14.31518512,.00171596,65.0119,308.7756,282.0078,77.9083,0,U,18187,999,3823,.9828203E-5,-.74E-6,0
SL-14 R/B,1988-001B,2026-07-15T04:14:46.926528,14.85626773,.00181579,82.5120,75.4399,171.8783,188.2731,0,U,18749,999,6095,.20231687E-4,.2E-5,0
COSMOS 1933,1988-020A,2026-07-15T07:14:03.870816,15.18888716,.00058846,82.5142,124.5930,107.0047,253.1832,0,U,18958,999,6959,.81813469E-4,.1738E-4,0
SL-3 R/B,1988-032B,2026-07-15T12:47:48.907680,15.21033260,.0026531,97.5272,179.5515,144.5894,215.7109,0,U,19046,999,7153,.99056664E-4,.2146E-4,0
SL-16 R/B,1988-039B,2026-07-15T07:20:11.558112,14.19631391,.0020613,71.0125,158.7013,149.1957,211.0383,0,U,19120,999,97649,-.6071143E-5,-.61E-6,0
COSMOS 1953,1988-050A,2026-07-15T12:44:12.934464,15.30340030,.00115127,82.5058,29.4409,38.9055,321.3012,0,U,19210,999,5732,.13270204E-3,.3934E-4,0
SL-8 R/B,1988-053B,2026-07-15T12:26:11.083776,14.38978369,.00197449,74.0458,236.8337,22.2710,83.1516,0,U,19257,999,99498,.47685077E-4,.121E-5,0
COSMOS 1975,1988-093A,2026-07-15T11:34:37.205184,15.29663939,.00125263,82.5198,349.2298,81.5832,278.6828,0,U,19573,999,3893,.12028325E-3,.3498E-4,0
SL-14 R/B,1988-093B,2026-07-15T08:35:25.317024,14.85760108,.00200057,82.5316,282.1992,339.7743,88.0488,0,U,19574,999,1997,.18566573E-4,.186E-5,0
SL-16 R/B,1988-102B,2026-07-15T12:59:45.715776,14.16166607,.0014282,70.9977,242.4784,185.0061,175.0921,0,U,19650,999,94499,-.20219897E-4,-.88E-6,0
INTERCOSMOS 24,1989-080A,2026-07-15T12:39:51.811200,12.59692142,.11871733,82.6050,21.1978,356.1746,3.0835,0,U,20261,999,68289,.36317426E-4,.137E-5,0
SL-14 R/B,1989-080C,2026-07-15T03:54:04.573152,12.50578472,.12287011,82.5934,91.3331,253.3658,92.9270,0,U,20262,999,67608,.20995669E-4,.72E-6,0
DELTA 1 R/B,1989-089B,2026-07-15T11:57:03.353472,14.50747945,.00706225,97.0635,23.5256,79.1011,281.8124,0,U,20323,999,91426,.39198459E-4,.124E-5,0
ARIANE 40 R/B,1990-005H,2026-07-15T02:49:42.593376,14.39940661,.00102618,98.2945,252.8633,174.2499,185.8810,0,U,20443,999,91114,.4403677E-4,.96E-6,0
DELTA 2 R/B(1),1990-008B,2026-07-14T21:28:07.937184,15.73550372,.005915,35.5999,49.6579,13.1124,347.1141,0,U,20453,999,94606,.48965E-3,.79925E-3,0
