SL-8 R/B                
1 15483U 85006B   26196.54217027  .00000119  00000+0  48280-4 0  9998
2 15483  74.0453  25.8825 0019252 268.8486 152.6177 14.37845453172404
SL-12 R/B(2)            
1 15772U 85042D   26196.37895626  .00000007  00000+0  24485-4 0  9994
2 15772  71.1066 177.9532 0037330 285.9117 179.5575 14.22010889132547
SL-14 R/B               
1 15945U 85069B   26196.57517674  .00000215  00000+0  21391-4 0  9995
2 15945  82.5262 264.6689 0020061 126.1164 234.1914 14.86535263191831
SL-16 R/B               
1 16182U 85097B   26196.52201003  .00000167  00000+0  10757-3 0  9990
2 16182  71.0007 231.4247 0005658  51.0311  59.0637 14.16612922105339
SL-14 R/B               
1 16496U 86006B   26196.31469869  .00000236  00000+0  22206-4 0  9992
2 16496  82.5283 139.6451 0075477 208.4610 151.2478 14.86968328168172
COSMOS 1743             
1 16719U 86034A   26196.34915275  .00040423  00000+0  34050-3 0  9992
2 16719  82.5282 298.7309 0005385 176.3189 183.8114 15.69632573200204
SL-14 R/B               
1 16792U 86046B   26196.44029168  .00000228  00000+0  23312-4 0  9993
2 16792  82.4839 319.4791 0023546 162.2185 197.9861 14.85690634145377
SL-14 R/B               
1 16882U 86055B   26196.56696715  .00000218  00000+0  22241-4 0  9993
2 16882  82.5203   6.4467 0017305 268.9044 156.1106 14.85740479138352
AJISAI (EGS)            
1 16908U 86061A   26196.63972411 -.00000075  00000+0  15653-3 0  9997
2 16908  50.0102  59.9045 0011083 253.0499 155.3981 12.44516692483930
SL-14 R/B               
1 17567U 87024B   26196.42725222  .00000217  00000+0  21835-4 0  9999
2 17567  82.5298 332.7058 0017834 192.9801 167.0960 14.86231775107105
COSMOS 1833             
1 17589U 87027A   26196.07004066  .00000088  00000+0  72779-4 0  9992
2 17589  70.9213  58.2635 0024246   8.9062 351.2484 14.13066600 28314
SL-16 R/B               
1 17590U 87027B   26196.52034825  .00000112  00000+0  79531-4 0  9991
2 17590  71.0032   7.1206 0007139 281.2426  78.7896 14.17173548 33459
SL-14 R/B               
1 17912U 87038B   26196.42064517  .00000210  00000+0  21428-4 0  9992
2 17912  82.5012 176.4775 0020833 101.5143 258.8414 14.85461531 98195
COSMOS 1844             
1 17973U 87041A   26196.25116794  .00000080  00000+0  66688-4 0  9991
2 17973  70.8997 125.1117 0031328 195.2119 164.8064 14.14580768 21626
SL-14 R/B               
1 18153U 87055B   26196.50966260  .00000203  00000+0  20505-4 0  9991
2 18153  82.4971 228.5287 0019397 314.0050  45.9567 14.85727162 88912
COSMOS 1867             
1 18187U 87060A   26196.49673550 -.00000074  00000+0  98282-5 0  9994
2 18187  65.0119 308.7756 0017159 282.0078  77.9083 14.31518512 38236
SL-14 R/B               
1 18749U 88001B   26196.17693202  .00000200  00000+0  20232-4 0  9994
2 18749  82.5120  75.4399 0018157 171.8783 188.2731 14.85626773 60952
COSMOS 1933             
1 18958U 88020A   26196.30143369  .00001738  00000+0  81813-4 0  9995
2 18958  82.5142 124.5930 0005884 107.0047 253.1832 15.18888716 69599
SL-3 R/B                
1 19046U 88032B   26196.53320495  .00002146  00000+0  99057-4 0  9992
2 19046  97.5272 179.5515 0026531 144.5894 215.7109 15.21033260 71533
SL-16 R/B               
1 19120U 88039B   26196.30568933 -.00000061  00000+0 -60711-5 0  9990
2 19120  71.0125 158.7013 0020613 149.1957 211.0383 14.19631391976495
COSMOS 1953             
1 19210U 88050A   26196.53070526  .00003934  00000+0  13270-3 0  9990
2 19210  82.5058  29.4409 0011512  38.9055 321.3012 15.30340030 57329
SL-8 R/B                
1 19257U 88053B   26196.51818384  .00000121  00000+0  47685-4 0  9997
2 19257  74.0458 236.8337 0019744  22.2710  83.1516 14.38978369994986
COSMOS 1975             
1 19573U 88093A   26196.48237506  .00003498  00000+0  12028-3 0  9991
2 19573  82.5198 349.2298 0012526  81.5832 278.6828 15.29663939 38937
SL-14 R/B               
1 19574U 88093B   26196.35793191  .00000186  00000+0  18567-4 0  9991
2 19574  82.5316 282.1992 0020005 339.7743  88.0488 14.85760108 19971
SL-16 R/B               
1 19650U 88102B   26196.54150134 -.00000088  00000+0 -20220-4 0  9994
2 19650  70.9977 242.4784 0014282 185.0061 175.0921 14.16166607944999
INTERCOSMOS 24          
1 20261U 89080A   26196.52768300  .00000137  00000+0  36317-4 0  9995
2 20261  82.6050  21.1978 1187173 356.1746   3.0835 12.59692142682895
SL-14 R/B               
1 20262U 89080C   26196.16255293  .00000072  00000+0  20996-4 0  9992
2 20262  82.5934  91.3331 1228701 253.3658  92.9270 12.50578472676085
DELTA 1 R/B             
1 20323U 89089B   26196.49795548  .00000124  00000+0  39198-4 0  9999
2 20323  97.0635  23.5256 0070622  79.1011 281.8124 14.50747945914265
ARIANE 40 R/B           
1 20443U 90005H   26196.11785409  .00000096  00000+0  44037-4 0  9992
2 20443  98.2945 252.8633 0010261 174.2499 185.8810 14.39940661911147
DELTA 2 R/B(1)          
1 20453U 90008B   26195.89453631  .00079925  00000+0  48965-3 0  9999
2 20453  35.5999  49.6579 0059150  13.1124 347.1141 15.73550372946062
